start=new Date('2022-09-27T00:00:00.000Z').valueOf();
sats=[{"OBJECT_ID":"2019-029D","ARG_OF_PERICENTER":"348.1382","ELEMENT_SET_NO":"999","GP_ID":"213573394","SITE":"AFETR","INCLINATION":"53.0021","RCS_SIZE":"LARGE","OBJECT_NAME":"STARLINK-24","MEAN_ELEMENT_THEORY":"SGP4","REF_FRAME":"TEME","MEAN_MOTION":"15.56965420","MEAN_MOTION_DDOT":"0.0000000000000","EPHEMERIS_TYPE":"0","NORAD_CAT_ID":"44238","FILE":"3584388","BSTAR":"0.00277800000000","ECCENTRICITY":"0.00118360","APOAPSIS":"404.466","RA_OF_ASC_NODE":"349.7248","CLASSIFICATION_TYPE":"U","COUNTRY_CODE":"US","CENTER_NAME":"EARTH","TLE_LINE1":"1 44238U 19029D   22269.48754973  .00209403  00000-0  27780-2 0  9994","PERIAPSIS":"388.429","OBJECT_TYPE":"PAYLOAD","LAUNCH_DATE":"2019-05-24","MEAN_ANOMALY":"11.9348","PERIOD":"92.488","MEAN_MOTION_DOT":"0.00209403","TLE_LINE2":"2 44238  53.0021 349.7248 0011836 348.1382  11.9348 15.56965420185495","TIME_SYSTEM":"UTC","DECAY_DATE":null,"EPOCH":"2022-09-26T11:42:04.296672","REV_AT_EPOCH":"18549","SEMIMAJOR_AXIS":"6774.582"},{"MEAN_MOTION_DOT":"0.00182334","PERIOD":"92.432","TIME_SYSTEM":"UTC","TLE_LINE2":"2 44252  52.9917 344.4750 0011083   1.2160 358.8875 15.57903281185551","EPOCH":"2022-09-26T08:37:13.952928","REV_AT_EPOCH":"18555","DECAY_DATE":null,"SEMIMAJOR_AXIS":"6771.863","OBJECT_TYPE":"PAYLOAD","MEAN_ANOMALY":"358.8875","LAUNCH_DATE":"2019-05-24","COUNTRY_CODE":"US","CLASSIFICATION_TYPE":"U","CENTER_NAME":"EARTH","PERIAPSIS":"386.223","TLE_LINE1":"1 44252U 19029T   22269.35918927  .00182334  00000-0  23450-2 0  9990","RA_OF_ASC_NODE":"344.4750","APOAPSIS":"401.234","BSTAR":"0.00234500000000","ECCENTRICITY":"0.00110830","EPHEMERIS_TYPE":"0","MEAN_MOTION_DDOT":"0.0000000000000","MEAN_MOTION":"15.57903281","FILE":"3584377","NORAD_CAT_ID":"44252","INCLINATION":"52.9917","RCS_SIZE":"LARGE","OBJECT_NAME":"STARLINK-71","MEAN_ELEMENT_THEORY":"SGP4","REF_FRAME":"TEME","OBJECT_ID":"2019-029T","ELEMENT_SET_NO":"999","ARG_OF_PERICENTER":"1.2160","SITE":"AFETR","GP_ID":"213573221"},{"ECCENTRICITY":"0.00013760","BSTAR":"-0.00004758300000","EPHEMERIS_TYPE":"0","MEAN_MOTION_DDOT":"0.0000000000000","MEAN_MOTION":"15.06393546","FILE":"3584345","NORAD_CAT_ID":"44713","OBJECT_NAME":"STARLINK-1007","RCS_SIZE":"LARGE","INCLINATION":"53.0562","REF_FRAME":"TEME","MEAN_ELEMENT_THEORY":"SGP4","ELEMENT_SET_NO":"999","ARG_OF_PERICENTER":"86.8465","OBJECT_ID":"2019-074A","SITE":"AFETR","GP_ID":"213540727","TIME_SYSTEM":"UTC","TLE_LINE2":"2 44713  53.0562  86.3622 0001376  86.8465 273.2682 15.06393546158728","MEAN_MOTION_DOT":"-0.00000990","PERIOD":"95.593","SEMIMAJOR_AXIS":"6925.368","EPOCH":"2022-09-25T22:27:36.539712","REV_AT_EPOCH":"15872","DECAY_DATE":null,"OBJECT_TYPE":"PAYLOAD","MEAN_ANOMALY":"273.2682","LAUNCH_DATE":"2019-11-11","COUNTRY_CODE":"US","CLASSIFICATION_TYPE":"U","PERIAPSIS":"546.280","TLE_LINE1":"1 44713U 19074A   22268.93583958 -.00000990  00000-0 -47583-4 0  9991","CENTER_NAME":"EARTH","RA_OF_ASC_NODE":"86.3622","APOAPSIS":"548.186"},{"OBJECT_NAME":"STARLINK-1008","INCLINATION":"53.0545","RCS_SIZE":"LARGE","REF_FRAME":"TEME","MEAN_ELEMENT_THEORY":"SGP4","ELEMENT_SET_NO":"999","ARG_OF_PERICENTER":"90.0441","OBJECT_ID":"2019-074B","SITE":"AFETR","GP_ID":"213596269","ECCENTRICITY":"0.00014150","BSTAR":"-0.00005217900000","EPHEMERIS_TYPE":"0","MEAN_MOTION":"15.06394575","MEAN_MOTION_DDOT":"0.0000000000000","FILE":"3584555","NORAD_CAT_ID":"44714","COUNTRY_CODE":"US","CLASSIFICATION_TYPE":"U","PERIAPSIS":"546.250","TLE_LINE1":"1 44714U 19074B   22269.77718184 -.00001058  00000-0 -52179-4 0  9999","CENTER_NAME":"EARTH","RA_OF_ASC_NODE":"82.5867","APOAPSIS":"548.210","TIME_SYSTEM":"UTC","TLE_LINE2":"2 44714  53.0545  82.5867 0001415  90.0441 270.0710 15.06394575158858","MEAN_MOTION_DOT":"-0.00001058","PERIOD":"95.592","SEMIMAJOR_AXIS":"6925.365","REV_AT_EPOCH":"15885","EPOCH":"2022-09-26T18:39:08.510976","DECAY_DATE":null,"OBJECT_TYPE":"PAYLOAD","MEAN_ANOMALY":"270.0710","LAUNCH_DATE":"2019-11-11"},{"MEAN_ELEMENT_THEORY":"SGP4","REF_FRAME":"TEME","RCS_SIZE":"LARGE","INCLINATION":"53.0528","OBJECT_NAME":"STARLINK-1009","GP_ID":"213504121","SITE":"AFETR","OBJECT_ID":"2019-074C","ARG_OF_PERICENTER":"87.5903","ELEMENT_SET_NO":"999","BSTAR":"0.00013661000000","ECCENTRICITY":"0.00012520","NORAD_CAT_ID":"44715","FILE":"3583828","MEAN_MOTION":"15.06401057","MEAN_MOTION_DDOT":"0.0000000000000","EPHEMERIS_TYPE":"0","CENTER_NAME":"EARTH","TLE_LINE1":"1 44715U 19074C   22268.77091936  .00001754  00000-0  13661-3 0  9991","PERIAPSIS":"546.343","CLASSIFICATION_TYPE":"U","COUNTRY_CODE":"US","APOAPSIS":"548.077","RA_OF_ASC_NODE":"87.1133","DECAY_DATE":null,"EPOCH":"2022-09-25T18:30:07.432704","REV_AT_EPOCH":"15869","SEMIMAJOR_AXIS":"6925.345","PERIOD":"95.592","MEAN_MOTION_DOT":"0.00001754","TLE_LINE2":"2 44715  53.0528  87.1133 0001252  87.5903 272.5229 15.06401057158698","TIME_SYSTEM":"UTC","LAUNCH_DATE":"2019-11-11","MEAN_ANOMALY":"272.5229","OBJECT_TYPE":"PAYLOAD"},{"RA_OF_ASC_NODE":"82.2627","APOAPSIS":"548.270","CENTER_NAME":"EARTH","PERIAPSIS":"546.226","TLE_LINE1":"1 44716U 19074D   22269.85090869 -.00002391  00000-0 -14169-3 0  9990","COUNTRY_CODE":"US","CLASSIFICATION_TYPE":"U","MEAN_ANOMALY":"273.3719","LAUNCH_DATE":"2019-11-11","OBJECT_TYPE":"PAYLOAD","EPOCH":"2022-09-26T20:25:18.510816","REV_AT_EPOCH":"15884","DECAY_DATE":null,"SEMIMAJOR_AXIS":"6925.383","MEAN_MOTION_DOT":"-0.00002391","PERIOD":"95.593","TIME_SYSTEM":"UTC","TLE_LINE2":"2 44716  53.0540  82.2627 0001476  86.7439 273.3719 15.06388864158840","SITE":"AFETR","GP_ID":"213596766","OBJECT_ID":"2019-074D","ELEMENT_SET_NO":"999","ARG_OF_PERICENTER":"86.7439","MEAN_ELEMENT_THEORY":"SGP4","REF_FRAME":"TEME","INCLINATION":"53.0540","RCS_SIZE":"LARGE","OBJECT_NAME":"STARLINK-1010","FILE":"3584555","NORAD_CAT_ID":"44716","EPHEMERIS_TYPE":"0","MEAN_MOTION":"15.06388864","MEAN_MOTION_DDOT":"0.0000000000000","BSTAR":"-0.00014169000000","ECCENTRICITY":"0.00014760"},{"REV_AT_EPOCH":"15855","EPOCH":"2022-09-26T15:36:01.536192","DECAY_DATE":null,"SEMIMAJOR_AXIS":"6925.320","MEAN_MOTION_DOT":"-0.00005217","PERIOD":"95.592","TIME_SYSTEM":"UTC","TLE_LINE2":"2 44717  53.0551 103.1520 0001478  97.9277 262.1880 15.06409181158553","MEAN_ANOMALY":"262.1880","LAUNCH_DATE":"2019-11-11","OBJECT_TYPE":"PAYLOAD","CENTER_NAME":"EARTH","PERIAPSIS":"546.162","TLE_LINE1":"1 44717U 19074E   22269.65001778 -.00005217  00000-0 -33151-3 0  9992","COUNTRY_CODE":"US","CLASSIFICATION_TYPE":"U","RA_OF_ASC_NODE":"103.1520","APOAPSIS":"548.209","BSTAR":"-0.00033151000000","ECCENTRICITY":"0.00014780","NORAD_CAT_ID":"44717","FILE":"3584555","EPHEMERIS_TYPE":"0","MEAN_MOTION_DDOT":"0.0000000000000","MEAN_MOTION":"15.06409181","MEAN_ELEMENT_THEORY":"SGP4","REF_FRAME":"TEME","INCLINATION":"53.0551","RCS_SIZE":"LARGE","OBJECT_NAME":"STARLINK-1011","SITE":"AFETR","GP_ID":"213595519","OBJECT_ID":"2019-074E","ELEMENT_SET_NO":"999","ARG_OF_PERICENTER":"97.9277"},{"APOAPSIS":"548.178","RA_OF_ASC_NODE":"87.1618","TLE_LINE1":"1 44718U 19074F   22268.75985939  .00000802  00000-0  72722-4 0  9994","PERIAPSIS":"546.290","CENTER_NAME":"EARTH","CLASSIFICATION_TYPE":"U","COUNTRY_CODE":"US","LAUNCH_DATE":"2019-11-11","MEAN_ANOMALY":"278.5879","OBJECT_TYPE":"PAYLOAD","SEMIMAJOR_AXIS":"6925.369","DECAY_DATE":null,"REV_AT_EPOCH":"15869","EPOCH":"2022-09-25T18:14:11.851296","TLE_LINE2":"2 44718  53.0551  87.1618 0001363  81.5264 278.5879 15.06393359158694","TIME_SYSTEM":"UTC","PERIOD":"95.593","MEAN_MOTION_DOT":"0.00000802","GP_ID":"213503882","SITE":"AFETR","ARG_OF_PERICENTER":"81.5264","ELEMENT_SET_NO":"999","OBJECT_ID":"2019-074F","REF_FRAME":"TEME","MEAN_ELEMENT_THEORY":"SGP4","OBJECT_NAME":"STARLINK-1012","INCLINATION":"53.0551","RCS_SIZE":"LARGE","NORAD_CAT_ID":"44718","FILE":"3583828","MEAN_MOTION_DDOT":"0.0000000000000","MEAN_MOTION":"15.06393359","EPHEMERIS_TYPE":"0","ECCENTRICITY":"0.00013630","BSTAR":"0.00007272200000"},{"MEAN_ANOMALY":"277.9547","LAUNCH_DATE":"2019-11-11","OBJECT_TYPE":"PAYLOAD","EPOCH":"2022-09-26T18:17:54.193056","REV_AT_EPOCH":"15997","DECAY_DATE":null,"SEMIMAJOR_AXIS":"6925.358","MEAN_MOTION_DOT":"0.00001064","PERIOD":"95.592","TIME_SYSTEM":"UTC","TLE_LINE2":"2 44719  53.0552  82.6599 0001403  82.1601 277.9547 15.06397062159973","RA_OF_ASC_NODE":"82.6599","APOAPSIS":"548.194","CENTER_NAME":"EARTH","PERIAPSIS":"546.251","TLE_LINE1":"1 44719U 19074G   22269.76243279  .00001064  00000-0  90315-4 0  9990","COUNTRY_CODE":"US","CLASSIFICATION_TYPE":"U","NORAD_CAT_ID":"44719","FILE":"3584555","EPHEMERIS_TYPE":"0","MEAN_MOTION_DDOT":"0.0000000000000","MEAN_MOTION":"15.06397062","BSTAR":"0.00009031500000","ECCENTRICITY":"0.00014030","SITE":"AFETR","GP_ID":"213596520","OBJECT_ID":"2019-074G","ELEMENT_SET_NO":"999","ARG_OF_PERICENTER":"82.1601","MEAN_ELEMENT_THEORY":"SGP4","REF_FRAME":"TEME","RCS_SIZE":"LARGE","INCLINATION":"53.0552","OBJECT_NAME":"STARLINK-1013"},{"SEMIMAJOR_AXIS":"6925.362","REV_AT_EPOCH":"15885","EPOCH":"2022-09-26T18:43:04.554912","DECAY_DATE":null,"TIME_SYSTEM":"UTC","TLE_LINE2":"2 44720  53.0558  82.5618 0001337  70.7856 289.3277 15.06395466158852","MEAN_MOTION_DOT":"0.00000601","PERIOD":"95.592","MEAN_ANOMALY":"289.3277","LAUNCH_DATE":"2019-11-11","OBJECT_TYPE":"PAYLOAD","PERIAPSIS":"546.302","TLE_LINE1":"1 44720U 19074H   22269.77991383  .00000601  00000-0  59234-4 0  9990","CENTER_NAME":"EARTH","COUNTRY_CODE":"US","CLASSIFICATION_TYPE":"U","RA_OF_ASC_NODE":"82.5618","APOAPSIS":"548.153","ECCENTRICITY":"0.00013370","BSTAR":"0.00005923400000","NORAD_CAT_ID":"44720","FILE":"3584555","EPHEMERIS_TYPE":"0","MEAN_MOTION_DDOT":"0.0000000000000","MEAN_MOTION":"15.06395466","REF_FRAME":"TEME","MEAN_ELEMENT_THEORY":"SGP4","OBJECT_NAME":"STARLINK-1014","INCLINATION":"53.0558","RCS_SIZE":"LARGE","SITE":"AFETR","GP_ID":"213597267","ELEMENT_SET_NO":"999","ARG_OF_PERICENTER":"70.7856","OBJECT_ID":"2019-074H"}];
